ONEWEB-0709             
1 55172U 23004AJ  24241.44988008  .00000311  00000+0  84143-3 0  9990
2 55172  87.8991 152.0737 0002331 102.1393 257.9996 13.11416416 79671
ONEWEB-0710             
1 55173U 23004AK  24240.45798360  .00000022  00000+0  22442-4 0  9995
2 55173  87.9168 137.0926 0002035  78.0532 282.0828 13.17647374 80837
ONEWEB-0711             
1 55174U 23004AL  24240.50549855  .00000360  00000+0  97855-3 0  9999
2 55174  87.8993 152.2293 0002734  65.3745 294.7667 13.11419635 79504
ONEWEB-0713             
1 55175U 23004AM  24240.52415304  .00000445  00000+0  12189-2 0  9993
2 55175  87.8991 152.2337 0002259  70.6789 289.4583 13.11417455 79495
ONEWEB-0715             
1 55176U 23004AN  24240.51907093  .00000285  00000+0  76949-3 0  9991
2 55176  87.8994 152.2349 0002236  83.0407 277.0975 13.11416520 79537
ONEWEB-0716             
1 55177U 23004AP  24240.45149509  .00001540  00000+0  39320-2 0  9991
2 55177  87.9173 137.0872 0001929  73.4685 286.6658 13.17651489 80839
ONEWEB-0717             
1 55178U 23004AQ  24240.96529988  .00000020  00000+0  17084-4 0  9998
2 55178  87.9172 136.9482 0002771  72.6002 287.5432 13.17647289 80950
ONEWEB-0719             
1 55179U 23004AR  24240.97659076 -.00000004  00000+0 -42300-4 0  9995
2 55179  87.9169 136.9320 0001764  66.2915 293.8401 13.17651998 80904
ONEWEB-0530             
1 55796U 23029A   24241.52152089  .00000032  00000+0  45811-4 0  9990
2 55796  87.9203  45.2948 0002100  77.4395 282.6973 13.20771029 75048
ONEWEB-0534             
1 55797U 23029B   24241.20585120  .00000089  00000+0  18797-3 0  9996
2 55797  87.9204  45.3646 0001583  91.4140 268.7175 13.20771837 74982
ONEWEB-0556             
1 55798U 23029C   24240.75763162  .00000049  00000+0  87506-4 0  9991
2 55798  87.9204  45.4472 0001539  59.9557 300.1729 13.20774293 74236
ONEWEB-0562             
1 55799U 23029D   24241.42682587  .00000094  00000+0  19891-3 0  9999
2 55799  87.9202  45.3048 0002186  62.6478 297.4878 13.20770064 75006
ONEWEB-0563             
1 55800U 23029E   24241.42051688  .00000161  00000+0  36309-3 0  9992
2 55800  87.9200  45.3208 0001517  93.1172 267.0135 13.20771085 74992
ONEWEB-0564             
1 55801U 23029F   24240.73238233  .00000077  00000+0  15749-3 0  9990
2 55801  87.9205  45.4441 0002065  82.3486 277.7882 13.20772186 74232
ONEWEB-0638             
1 55802U 23029G   24240.21305137 -.00000051  00000+0 -17298-3 0  9997
2 55802  87.8925  60.8209 0001419  67.1917 292.9362 13.14504827 73538
ONEWEB-0639             
1 55803U 23029H   24240.94213886  .00000075  00000+0  15585-3 0  9998
2 55803  87.9095  75.9247 0001066 144.0540 216.0665 13.19727836 72086
ONEWEB-0640             
1 55804U 23029J   24240.75538517 -.00000089  00000+0 -27548-3 0  9998
2 55804  87.8925  60.7070 0000953  67.8094 292.3136 13.14503213 72912
ONEWEB-0641             
1 55805U 23029K   24240.93740454  .00000076  00000+0  15829-3 0  9997
2 55805  87.9091  75.9060 0001495  93.7042 266.4262 13.19727330 72092
ONEWEB-0642             
1 55806U 23029L   24240.78104397  .00000014  00000+0  35340-5 0  9995
2 55806  87.9096  75.9627 0001372 126.3223 233.8036 13.19723001 72060
ONEWEB-0643             
1 55807U 23029M   24240.80138239  .00000309  00000+0  80004-3 0  9993
2 55807  87.8927  60.6758 0001989 119.9796 240.1532 13.14503514 72899
ONEWEB-0644             
1 55808U 23029N   24240.77629679  .00000011  00000+0 -42990-5 0  9998
2 55808  87.9098  75.9612 0001424 108.9284 251.2003 13.19726598 72061
ONEWEB-0645             
1 55809U 23029P   24240.77235752  .00000019  00000+0  15675-4 0  9990
2 55809  87.9096  75.9624 0001171  93.5364 266.5902 13.19723927 72060
ONEWEB-0646             
1 55810U 23029Q   24241.10563545  .00000137  00000+0  31092-3 0  9995
2 55810  87.9097  75.8937 0001642  96.2174 263.9146 13.19725435 72787
ONEWEB-0648             
1 55811U 23029R   24241.53083624 -.00000155  00000+0 -45208-3 0  9994
2 55811  87.8929  60.5020 0001008 129.2716 230.8503 13.14503288 73708
ONEWEB-0649             
1 55812U 23029S   24240.84106184  .00000001  00000+0 -29320-4 0  9992
2 55812  87.9093  75.9413 0001346  95.4371 264.6916 13.19724313 72097
ONEWEB-0650             
1 55813U 23029T   24241.06376701  .00000121  00000+0  27090-3 0  9995
2 55813  87.9094  75.8999 0001591  97.9974 262.1339 13.19727283 72782
ONEWEB-0652             
1 55814U 23029U   24241.20735877 -.00000038  00000+0 -13746-3 0  9997
2 55814  87.8927  60.5782 0001777  85.7814 274.3519 13.14503799 73619
ONEWEB-0653             
1 55815U 23029V   24240.73477161  .00000186  00000+0  46745-3 0  9991
2 55815  87.8928  60.6543 0001620  78.8316 281.2996 13.14503813 72896
ONEWEB-0654             
1 55816U 23029W   24240.73001365  .00000337  00000+0  87323-3 0  9996
2 55816  87.8927  60.6635 0001959  77.2570 282.8778 13.14504691 72911
ONEWEB-0656             
1 55817U 23029X   24240.72607586  .00000165  00000+0  37316-3 0  9999
2 55817  87.9205  45.3872 0002408  86.0060 274.1348 13.20772551 74230
ONEWEB-0657             
1 55818U 23029Y   24240.83157966  .00000084  00000+0  17711-3 0  9991
2 55818  87.9094  75.9513 0002701  93.4423 266.7018 13.19727040 72071
ONEWEB-0658             
1 55819U 23029Z   24241.05429207  .00000078  00000+0  16365-3 0  9994
2 55819  87.9095  75.8421 0001456 108.4199 251.7092 13.19726977 72796
ONEWEB-0660             
1 55820U 23029AA  24241.01227903  .00000033  00000+0  54076-4 0  9994
2 55820  87.8925  60.5809 0001185  87.9169 272.2097 13.14505107 73640
ONEWEB-0661             
1 55821U 23029AB  24241.19942013  .00000113  00000+0  27010-3 0  9996
2 55821  87.8928  60.6114 0001265  81.6413 278.4860 13.14502854 73637
ONEWEB-0662             
1 55822U 23029AC  24240.77759690  .00000024  00000+0  29468-4 0  9998
2 55822  87.8926  60.7029 0001356  93.0998 267.0287 13.14503560 72932
ONEWEB-0663             
1 55823U 23029AD  24240.94521087  .00000025  00000+0  29714-4 0  9990
2 55823  87.9207  45.4037 0001330  98.2841 261.8443 13.20795961 74259
ONEWEB-0664             
1 55824U 23029AE  24241.39526255  .00000108  00000+0  23400-3 0  9990
2 55824  87.9207  45.3284 0001548  75.7082 284.4223 13.20770152 75007
ONEWEB-0665             
1 55825U 23029AF  24240.73953212  .00000135  00000+0  32946-3 0  9990
2 55825  87.8928  60.6782 0001361  89.2783 270.8503 13.14503824 72900
ONEWEB-0666             
1 55826U 23029AG  24240.93438774 -.00000011  00000+0 -59423-4 0  9999
2 55826  87.9204  45.4105 0002139  86.6038 273.5340 13.20773542 74260
ONEWEB-0667             
1 55827U 23029AH  24240.70081871  .00000170  00000+0  38523-3 0  9998
2 55827  87.9202  45.3905 0001501  87.0041 273.1264 13.20768987 74221
ONEWEB-0669             
1 55828U 23029AJ  24240.69606568  .00000131  00000+0  28918-3 0  9997
2 55828  87.9201  45.4286 0002161  71.9266 288.2103 13.20774703 74220
ONEWEB-0670             
1 55829U 23029AK  24240.94568000 -.00000111  00000+0 -33290-3 0  9993
2 55829  87.8928  60.6449 0001296  76.4723 283.6551 13.14502042 72954
ONEWEB-0671             
1 55830U 23029AL  24240.82209497  .00000025  00000+0  29385-4 0  9997
2 55830  87.9095  75.9507 0001442  81.8736 278.2561 13.19722199 72068
ONEWEB-0672             
1 55831U 23029AM  24241.52465224  .00000066  00000+0  13081-3 0  9998
2 55831  87.9203  45.2474 0002065  89.0997 271.0373 13.20775427 75018
ONEWEB-0673             
1 55832U 23029AN  24240.79841095  .00000042  00000+0  73486-4 0  9991
2 55832  87.9092  75.9215 0001501  85.7279 274.4025 13.19725814 72064
ONEWEB-0674             
1 55833U 23029AP  24241.52292663 -.00000184  00000+0 -53117-3 0  9992
2 55833  87.8924  60.5314 0001439  67.3711 292.7571 13.14503867 73691
ONEWEB-0675             
1 55834U 23029AQ  24240.28349302  .00000050  00000+0  92295-4 0  9999
2 55834  87.9099  76.0607 0002012  96.1681 263.9681 13.19722722 72012
ONEWEB-0720             
1 55835U 23029AR  24240.80631171  .00000158  00000+0  36224-3 0  9994
2 55835  87.9099  75.9560 0001283  97.7401 262.3878 13.19726196 72004
ONEWEB-0537             
1 56046U 23043A   24240.60495001  .00000060  00000+0  12429-3 0  9996
2 56046  87.9160 359.8989 0002133 101.5834 258.5537 13.16593916 73218
ONEWEB-0538             
1 56047U 23043B   24240.59860546  .00000049  00000+0  94163-4 0  9998
2 56047  87.9162 359.9203 0001904 109.5081 250.6256 13.16595435 72317
ONEWEB-0546             
1 56048U 23043C   24241.34591379  .00000073  00000+0  15755-3 0  9994
2 56048  87.9164 359.7374 0002635  92.2944 267.8489 13.16592657 73317
ONEWEB-0547             
1 56049U 23043D   24241.06916358  .00000019  00000+0  15395-4 0  9993
2 56049  87.9332  15.0039 0001879 105.5214 254.6127 13.21823002 72197
ONEWEB-0548             
1 56050U 23043E   24240.61126452 -.00000033  00000+0 -12008-3 0  9998
2 56050  87.9161 359.9256 0001484  82.0876 278.0424 13.16594799 72300
ONEWEB-0549             
1 56051U 23043F   24241.13619125 -.00000025  00000+0 -92281-4 0  9994
2 56051  87.9334  14.9910 0001758 101.8216 258.3115 13.21826820 72206
ONEWEB-0550             
1 56052U 23043G   24241.42635739  .00000004  00000+0 -20734-4 0  9996
2 56052  87.9332  14.9386 0001650  94.4543 265.6779 13.21823169 72247
ONEWEB-0551             
1 56053U 23043H   24240.65088019  .00000190  00000+0  47122-3 0  9998
2 56053  87.9062  30.2741 0001615 102.2699 257.8612 13.15550583 69813
ONEWEB-0552             
1 56054U 23043J   24241.42004985  .00000081  00000+0  16370-3 0  9995
2 56054  87.9331  14.9494 0001503  99.9803 260.1501 13.21823770 72245
ONEWEB-0553             
1 56055U 23043K   24241.04825701 -.00000028  00000+0 -10576-3 0  9996
2 56055  87.9162 359.8274 0002195  97.2739 262.8641 13.16595906 73282
ONEWEB-0554             
1 56056U 23043L   24241.33957129  .00000075  00000+0  16364-3 0  9990
2 56056  87.9167 359.7930 0001342  83.3980 276.7304 13.16594669 73301
